LEMUR-2-ROUNDTRIPPER    
1 62711U 25009DG  26194.17385074  .00005331  00000+0  38803-3 0  9996
2 62711  97.7252 276.8201 0004411  68.0199 292.1495 15.04211677 81533
LEMUR-2-MYNAMEISJEFF    
1 62712U 25009DH  26194.17232549  .00005149  00000+0  37505-3 0  9990
2 62712  97.7301 277.2155 0003910 101.5856 258.5808 15.04203117 81532
LEMUR-2-LEIA-PHILIP     
1 63246U 25052AN  26193.66413878  .00000597  00000+0  56355-4 0  9997
2 63246  97.6812  85.1833 0005092 125.0201 235.1500 14.97389132 72485
LEMUR-2-LIA-MARTIN      
1 63248U 25052AQ  26194.12733777  .00002906  00000+0  25087-3 0  9997
2 63248  97.6876  86.1537 0005402  95.0747 265.1092 14.98021131 72566
LEMUR-2-DELOITTE-1      
1 63259U 25052BB  26193.70660406  .00002176  00000+0  19038-3 0  9998
2 63259  97.6883  86.0697 0002450  67.7345 292.4137 14.97770317 72516
LEMUR-2-EMERSONROSE     
1 63261U 25052BD  26194.12372918  .00003044  00000+0  25420-3 0  9993
2 63261  97.6887  87.0891 0002783  64.4353 295.7157 14.99279904 72620
LEMUR-2-MARACHE-FRAN    
1 63262U 25052BE  26193.68099203  .00001900  00000+0  15634-3 0  9992
2 63262  97.6849  87.0169 0004895 264.0208  96.0458 15.00306023 72587
LEMUR-2-THEFALCONER     
1 63264U 25052BG  26194.20442049  .00001245  00000+0  11161-3 0  9996
2 63264  97.6842  86.1531 0000359 346.8001  13.3212 14.97559099 72584
LEMUR-2-UNTITLED-SC     
1 63351U 25061A   26193.87214808  .00002336  00000+0  13321-3 0  9997
2 63351  97.5648 169.0511 0018996 170.8759 189.2821 15.13638131 71474
LEMUR-2-ESPERANZA       
1 63352U 25061B   26194.24426533  .00001558  00000+0  89797-4 0  9996
2 63352  97.5656 169.5204 0018642 168.8182 191.3467 15.13745158 71538
LEMUR-2-KREMPEL-BRO2    
1 63353U 25061C   26193.93336263  .00002204  00000+0  12399-3 0  9994
2 63353  97.5701 169.7776 0019740 162.8616 197.3287 15.14170656 71501
LEMUR-2-THERMORAPTOR    
1 63354U 25061D   26193.91404302  .00001879  00000+0  10600-3 0  9993
2 63354  97.5707 169.8390 0019519 161.7454 198.4482 15.14253556 71503
LEMUR-2-NEUROSPICY      
1 63355U 25061E   26193.88373662  .00002431  00000+0  13578-3 0  9996
2 63355  97.5633 169.4153 0017234 164.6418 195.5340 15.14371468 71503
LEMUR-2-TILLINFINITY    
1 63356U 25061F   26194.17330003  .00001880  00000+0  10403-3 0  9993
2 63356  97.5621 170.0118 0018870 152.5222 207.7012 15.14956079 71572
LEMUR-2-KREMPEL-BRO1    
1 63357U 25061G   26193.88585754  .00002402  00000+0  13262-3 0  9993
2 63357  97.5621 169.6347 0019420 154.8112 205.4072 15.14762625 71524
LEMUR-2-LANGER2SPACE    
1 63358U 25061H   26193.98358928  .00001841  00000+0  10344-3 0  9990
2 63358  97.5626 169.5355 0017197 162.6831 197.4991 15.14456891 71527
LEMUR-2-BALTO           
1 63395U 25052BH  26193.66543465  .00002854  00000+0  23213-3 0  9992
2 63395  97.6934  86.9871 0005235 338.2510  21.8491 15.00350179 72580
LEMUR-2-KRISH           
1 64561U 25135AK  26193.82005881  .00002533  00000+0  22845-3 0  9997
2 64561  97.7772 308.5248 0001550  96.3238 263.8160 14.96440074 57754
LEMUR-2-HUBBLE-4        
1 64565U 25135AP  26194.26546644  .00001104  00000+0  10981-3 0  9998
2 64565  97.7717 307.8688 0002518 167.2748 192.8536 14.93682329 57763
LEMUR-2-SEJONG-2        
1 64586U 25135BL  26194.30974839  .00002131  00000+0  19079-3 0  9995
2 64586  97.7705 309.1574 0003830 227.9084 132.1812 14.96903163 57856
LEMUR-2-HUBBLE-5        
1 64840U 25135BT  26194.27498339  .00001025  00000+0  10103-3 0  9990
2 64840  97.7739 308.5451 0004223 243.2055 116.8733 14.94210500 57809
LEMUR-2-KARENDARRELL    
1 64841U 25135BU  26194.19586656  .00004373  00000+0  35154-3 0  9994
2 64841  97.7709 310.3687 0012247 110.7929 249.4607 15.00482255 57913
LEMUR-2-LUCILLE-ROSE    
1 65403U 25135BV  26193.83586689  .00004195  00000+0  33731-3 0  9996
2 65403  97.7710 310.0446 0014651 196.2246 163.8510 15.00473532 52489
OTTER SDM               
1 66678U 25276N   26194.18829196  .00003482  00000+0  16462-3 0  9999
2 66678  97.4209 267.2358 0004240 263.4653  96.6100 15.20042584 34367
LEMUR-2-STAS-GORBUK     
1 66686U 25276W   26193.74827236  .00003778  00000+0  18040-3 0  9994
2 66686  97.4243 266.8551 0003456 260.6907  99.3937 15.19644338 34296
LEMUR-2-TEODOR          
1 66768U 25276DG  26193.76974610  .00003610  00000+0  16439-3 0  9991
2 66768  97.4147 267.1448 0002280  89.7179 270.4318 15.21322077 34330
LEMUR-2-LAILA           
1 66776U 25276DQ  26194.13449469  .00003690  00000+0  16683-3 0  9990
2 66776  97.4170 267.6416 0002911  97.3279 262.8287 15.21550887 34390
LEMUR-2-CELIJO-SB-PK    
1 66781U 25276DW  26193.98390948  .00003504  00000+0  28425-3 0  9996
2 66781  97.5201 263.9101 0007063  69.7393 290.4590 15.00273190 26497
